$$SOE
2460728.500000000, A.D. 2025-Feb-22 00:00:00.0000, -4.933027999263890E+08, 8.134524922122996E+07, 1.133994564490558E+07,
2460735.500000000, A.D. 2025-Mar-01 00:00:00.0000, -4.931501235487183E+08, 7.174675421308382E+07, 1.156386434113765E+07,
2460742.500000000, A.D. 2025-Mar-08 00:00:00.0000, -4.928041329520455E+08, 6.212010024154693E+07, 1.178324971923985E+07,
2460749.500000000, A.D. 2025-Mar-15 00:00:00.0000, -4.922630504088989E+08, 5.246882181535485E+07, 1.199796981951183E+07,
2460756.500000000, A.D. 2025-Mar-22 00:00:00.0000, -4.915251374191950E+08, 4.279653547691440E+07, 1.220789205661725E+07,
2460763.500000000, A.D. 2025-Mar-29 00:00:00.0000, -4.905886982407336E+08, 3.310693927260570E+07, 1.241288319566613E+07,
2460770.500000000, A.D. 2025-Apr-05 00:00:00.0000, -4.894520818534011E+08, 2.340381306821359E+07, 1.261280925042838E+07,
2460777.500000000, A.D. 2025-Apr-12 00:00:00.0000, -4.881136842857179E+08, 1.369101980463532E+07, 1.280753548874849E+07,
2460784.500000000, A.D. 2025-Apr-19 00:00:00.0000, -4.865719514965748E+08, 3.972506803879765E+06, 1.299692649018412E+07,
2460791.500000000, A.D. 2025-Apr-26 00:00:00.0000, -4.848253825467592E+08, -5.747693084991710E+06, 1.318084621434899E+07,
2460798.500000000, A.D. 2025-May-03 00:00:00.0000, -4.828725329517434E+08, -1.546546048763991E+07, 1.335915807120570E+07,
2460805.500000000, A.D. 2025-May-10 00:00:00.0000, -4.807120181910040E+08, -2.517658865254104E+07, 1.353172499156154E+07,
2460812.500000000, A.D. 2025-May-17 00:00:00.0000, -4.783425173400345E+08, -3.487678279453608E+07, 1.369840949125099E+07,
2460819.500000000, A.D. 2025-May-24 00:00:00.0000, -4.757627766533270E+08, -4.456165969730995E+07, 1.385907370884372E+07,
2460826.500000000, A.D. 2025-May-31 00:00:00.0000, -4.729716126821280E+08, -5.422674727367426E+07, 1.401357940424649E+07,
2460833.500000000, A.D. 2025-Jun-07 00:00:00.0000, -4.699679153287876E+08, -6.386748288962752E+07, 1.416178805371839E+07,
2460840.500000000, A.D. 2025-Jun-14 00:00:00.0000, -4.667506532030525E+08, -7.347921113108081E+07, 1.430356120393016E+07,
2460847.500000000, A.D. 2025-Jun-21 00:00:00.0000, -4.633188800654114E+08, -8.305718429731385E+07, 1.443876070640118E+07,
2460854.500000000, A.D. 2025-Jun-28 00:00:00.0000, -4.596717392303607E+08, -9.259656386849430E+07, 1.456724869003983E+07,
2460861.500000000, A.D. 2025-Jul-05 00:00:00.0000, -4.558084674444703E+08, -1.020924208032514E+08, 1.468888758758141E+07,
2460868.500000000, A.D. 2025-Jul-12 00:00:00.0000, -4.517283994276463E+08, -1.115397354860859E+08, 1.480354025965134E+07,
2460875.500000000, A.D. 2025-Jul-19 00:00:00.0000, -4.474309728861720E+08, -1.209333979151761E+08, 1.491107015233758E+07,
2460882.500000000, A.D. 2025-Jul-26 00:00:00.0000, -4.429157337854579E+08, -1.302682082026154E+08, 1.501134146474572E+07,
2460889.500000000, A.D. 2025-Aug-02 00:00:00.0000, -4.381823418135959E+08, -1.395388773810169E+08, 1.510421932272033E+07,
2460896.500000000, A.D. 2025-Aug-09 00:00:00.0000, -4.332305760073348E+08, -1.487400285471803E+08, 1.518956995581516E+07,
2460903.500000000, A.D. 2025-Aug-16 00:00:00.0000, -4.280603404572988E+08, -1.578661984226698E+08, 1.526726086571231E+07,
2460910.500000000, A.D. 2025-Aug-23 00:00:00.0000, -4.226716697923360E+08, -1.669118393318712E+08, 1.533716096103270E+07,
2460917.500000000, A.D. 2025-Aug-30 00:00:00.0000, -4.170647341050298E+08, -1.758713209008272E+08, 1.539914068714684E+07,
2460924.500000000, A.D. 2025-Sep-06 00:00:00.0000, -4.112398447255200E+08, -1.847389304943378E+08, 1.545307236317191E+07,
2460931.500000000, A.D. 2025-Sep-13 00:00:00.0000, -4.051974625022420E+08, -1.935088748930414E+08, 1.549883067675519E+07,
2460938.500000000, A.D. 2025-Sep-20 00:00:00.0000, -3.989382053042765E+08, -2.021752848741983E+08, 1.553629290234542E+07,
2460945.500000000, A.D. 2025-Sep-27 00:00:00.0000, -3.924628536727232E+08, -2.107322196023970E+08, 1.556533900054174E+07,
2460952.500000000, A.D. 2025-Oct-04 00:00:00.0000, -3.857723566198687E+08, -2.191736703079106E+08, 1.558585182778921E+07,
2460959.500000000, A.D. 2025-Oct-11 00:00:00.0000, -3.788678379293920E+08, -2.274935642134846E+08, 1.559771741356233E+07,
2460966.500000000, A.D. 2025-Oct-18 00:00:00.0000, -3.717506026526196E+08, -2.356857690023360E+08, 1.560082525636157E+07,
2460973.500000000, A.D. 2025-Oct-25 00:00:00.0000, -3.644221436389714E+08, -2.437440978340418E+08, 1.559506862635231E+07,
2460980.500000000, A.D. 2025-Nov-01 00:00:00.0000, -3.568841480369507E+08, -2.516623149091267E+08, 1.558034487196821E+07,
2460987.500000000, A.D. 2025-Nov-08 00:00:00.0000, -3.491385037045883E+08, -2.594341416285893E+08, 1.555655572430445E+07,
2460994.500000000, A.D. 2025-Nov-15 00:00:00.0000, -3.411873053526199E+08, -2.670532634200316E+08, 1.552360758039165E+07,
2461001.500000000, A.D. 2025-Nov-22 00:00:00.0000, -3.330328599862481E+08, -2.745133370210703E+08, 1.548141174572641E+07,
2461008.500000000, A.D. 2025-Nov-29 00:00:00.0000, -3.246776917637639E+08, -2.818079970929803E+08, 1.542988474202308E+07,
2461015.500000000, A.D. 2025-Dec-06 00:00:00.0000, -3.161245485102444E+08, -2.889308623064282E+08, 1.536894887682888E+07,
2461022.500000000, A.D. 2025-Dec-13 00:00:00.0000, -3.073764094108222E+08, -2.958755442756736E+08, 1.529853275842524E+07,
2461029.500000000, A.D. 2025-Dec-20 00:00:00.0000, -2.984364903488367E+08, -3.026356583242121E+08, 1.521857151796015E+07,
2461036.500000000, A.D. 2025-Dec-27 00:00:00.0000, -2.893082479212022E+08, -3.092048334934737E+08, 1.512900704797392E+07,
2461043.500000000, A.D. 2026-Jan-03 00:00:00.0000, -2.799953835473396E+08, -3.155767224083139E+08, 1.502978833972310E+07,
2461050.500000000, A.D. 2026-Jan-10 00:00:00.0000, -2.705018475171323E+08, -3.217450116718343E+08, 1.492087185246129E+07,
2461057.500000000, A.D. 2026-Jan-17 00:00:00.0000, -2.608318426987306E+08, -3.277034328707329E+08, 1.480222188440768E+07,
2461064.500000000, A.D. 2026-Jan-24 00:00:00.0000, -2.509898277804733E+08, -3.334457741541662E+08, 1.467381093858907E+07,
2461071.500000000, A.D. 2026-Jan-31 00:00:00.0000, -2.409805199748760E+08, -3.389658923746175E+08, 1.453562007923661E+07,
2461078.500000000, A.D. 2026-Feb-07 00:00:00.0000, -2.308088970738713E+08, -3.442577258243434E+08, 1.438763926673755E+07,
2461085.500000000, A.D. 2026-Feb-14 00:00:00.0000, -2.204801985526942E+08, -3.493153075541614E+08, 1.422986764485118E+07,
2461092.500000000, A.D. 2026-Feb-21 00:00:00.0000, -2.099999252857750E+08, -3.541327786641254E+08, 1.406231378984675E+07,
2461099.500000000, A.D. 2026-Feb-28 00:00:00.0000, -1.993738389111692E+08, -3.587044003737491E+08, 1.388499611321600E+07,
2461106.500000000, A.D. 2026-Mar-07 00:00:00.0000, -1.886079628545223E+08, -3.630245667776877E+08, 1.369794344506350E+07,
2461113.500000000, A.D. 2026-Mar-14 00:00:00.0000, -1.777085821916145E+08, -3.670878205722039E+08, 1.350119535054453E+07,
2461120.500000000, A.D. 2026-Mar-21 00:00:00.0000, -1.666822405255921E+08, -3.708888688028981E+08, 1.329480225047444E+07,
2461127.500000000, A.D. 2026-Mar-28 00:00:00.0000, -1.555357358509137E+08, -3.744225975470098E+08, 1.307882561236784E+07,
2461134.500000000, A.D. 2026-Apr-04 00:00:00.0000, -1.442761159736950E+08, -3.776840864316996E+08, 1.285333818617164E+07,
2461141.500000000, A.D. 2026-Apr-11 00:00:00.0000, -1.329106731844634E+08, -3.806686232788678E+08, 1.261842422786210E+07,
2461148.500000000, A.D. 2026-Apr-18 00:00:00.0000, -1.214469379984920E+08, -3.833717188096559E+08, 1.237417969339085E+07,
2461155.500000000, A.D. 2026-Apr-25 00:00:00.0000, -1.098926718979508E+08, -3.857891213173342E+08, 1.212071239771247E+07,
2461162.500000000, A.D. 2026-May-02 00:00:00.0000, -9.825585903222543E+07, -3.879168312588268E+08, 1.185814213163534E+07,
2461169.500000000, A.D. 2026-May-09 00:00:00.0000, -8.654469674642308E+07, -3.897511157486221E+08, 1.158660071783823E+07,
2461176.500000000, A.D. 2026-May-16 00:00:00.0000, -7.476758456243333E+07, -3.912885227314025E+08, 1.130623198097689E+07,
2461183.500000000, A.D. 2026-May-23 00:00:00.0000, -6.293311157111856E+07, -3.925258937234747E+08, 1.101719170902425E+07,
2461190.500000000, A.D. 2026-May-30 00:00:00.0000, -5.105004433274172E+07, -3.934603747137441E+08, 1.071964782093203E+07,
2461197.500000000, A.D. 2026-Jun-06 00:00:00.0000, -3.912731562931669E+07, -3.940894284072038E+08, 1.041378050046396E+07,
2461204.500000000, A.D. 2026-Jun-13 00:00:00.0000, -2.717401043772600E+07, -3.944108475238837E+08, 1.009978197475043E+07,
2461211.500000000, A.D. 2026-Jun-20 00:00:00.0000, -1.519934966906876E+07, -3.944227661416433E+08, 9.777856221623570E+06,
2461218.500000000, A.D. 2026-Jun-27 00:00:00.0000, -3.212673425659040E+06, -3.941236693387523E+08, 9.448218732968628E+06,
2461225.500000000, A.D. 2026-Jul-04 00:00:00.0000, 8.776576163428217E+06, -3.935124018306167E+08, 9.111096270270646E+06,
2461232.500000000, A.D. 2026-Jul-11 00:00:00.0000, 2.075887271365738E+07, -3.925881756574158E+08, 8.766726578133821E+06,
2461239.500000000, A.D. 2026-Jul-18 00:00:00.0000, 3.272462397974061E+07, -3.913505768283451E+08, 8.415358049559563E+06,
2461246.500000000, A.D. 2026-Jul-25 00:00:00.0000, 4.466419081481551E+07, -3.897995708590744E+08, 8.057249341554046E+06,
2461253.500000000, A.D. 2026-Aug-01 00:00:00.0000, 5.656790665146600E+07, -3.879355071989554E+08, 7.692668933867335E+06,
2461260.500000000, A.D. 2026-Aug-08 00:00:00.0000, 6.842609762103575E+07, -3.857591225411156E+08, 7.321894609967828E+06,
2461267.500000000, A.D. 2026-Aug-15 00:00:00.0000, 8.022910362096246E+07, -3.832715425295950E+08, 6.945212861083686E+06,
2461274.500000000, A.D. 2026-Aug-22 00:00:00.0000, 9.196729945925380E+07, -3.804742806130174E+08, 6.562918385066763E+06,
2461281.500000000, A.D. 2026-Aug-29 00:00:00.0000, 1.036311136759671E+08, -3.773692353947899E+08, 6.175313779855743E+06,
2461288.500000000, A.D. 2026-Sep-05 00:00:00.0000, 1.152110470664277E+08, -3.739586893356375E+08, 5.782709003561705E+06,
2461295.500000000, A.D. 2026-Sep-12 00:00:00.0000, 1.266976932543047E+08, -3.702453063167394E+08, 5.385420582802981E+06,
$$EOE